norad_id,name,regime,epoch,line1,line2,inclination,eccentricity,mean_motion,raan,arg_pericenter,mean_anomaly
36395,SDO,IGO,11168.49407050,1 36395U 10005A   11168.49407050 -.00000034  00000-0  00000+0 0  2921\,2 36395 027.8936 180.7946 0002976 300.7031 219.9863 01.00271785  5123,27.8936,0.0002976,1.00271785,180.7946,300.7031,219.9863
36395,SDO,IGO,11169.34398855,1 36395U 10005A   11169.34398855 -.00000035 +00000-0 +00000-0 0 02931\,2 36395 027.8933 180.7789 0002969 301.0247 166.4879 01.00271765005132,27.8933,0.0002969,1.00271765,180.7789,301.0247,166.4879
36395,SDO,IGO,11170.30533488,1 36395U 10005A   11170.30533488 -.00000035  00000-0  00000+0 0  2931\,2 36395 027.8931 180.7612 0002972 301.1363 153.4255 01.00271738  5144,27.8931,0.0002972,1.00271738,180.7612,301.1363,153.4255
36395,SDO,IGO,11171.34221240,1 36395U 10005A   11171.34221240 -.00000032  00000-0  00000+0 0  2944\,2 36395 027.8929 180.7421 0003016 300.0256 168.8543 01.00271754  5157,27.8929,0.0003016,1.00271754,180.7421,300.0256,168.8543
36395,SDO,IGO,11172.46628691,1 36395U 10005A   11172.46628691 -.00000026  00000-0  00000+0 0  2953\,2 36395 027.8926 180.7212 0002987 299.9229 214.7532 01.00271762  5163,27.8926,0.0002987,1.00271762,180.7212,299.9229,214.7532
36395,SDO,IGO,11173.38953112,1 36395U 10005A   11173.38953112 -.00000020 +00000-0 +00000-0 0 02971\,2 36395 027.8924 180.7044 0003000 301.0817 186.8892 01.00271767005173,27.8924,0.0003,1.00271767,180.7044,301.0817,186.8892
36395,SDO,IGO,11174.26902543,1 36395U 10005A   11174.26902543 -.00000014  00000-0  00000+0 0  2962\,2 36395 027.8922 180.6881 0002967 301.2271 144.2440 01.00271733  5187,27.8922,0.0002967,1.00271733,180.6881,301.2271,144.244
36395,SDO,IGO,11174.27991712,1 36395U 10005A   11174.27991712 -.00000014 +00000-0 +00000-0 0 02971\,2 36395 027.8922 180.6880 0003018 301.3977 148.0066 01.00271772005187,27.8922,0.0003018,1.00271772,180.688,301.3977,148.0066
36395,SDO,IGO,11177.34327839,1 36395U 10005A   11177.34327839 -.00000001 +00000-0 +00000-0 0 02971\,2 36395 027.8917 180.6307 0002951 297.9009 177.4060 01.00272457005211,27.8917,0.0002951,1.00272457,180.6307,297.9009,177.406
36395,SDO,IGO,11178.27115493,1 36395U 10005A   11178.27115493 -.00000000 +00000-0 +00000-0 0 02996\,2 36395 027.8914 180.6141 0002971 301.1531 149.1195 01.00272392005228,27.8914,0.0002971,1.00272392,180.6141,301.1531,149.1195
36395,SDO,IGO,11179.24776882,1 36395U 10005A   11179.24776882 -.00000002  00000-0  00000+0 0  2989\,2 36395 027.8912 180.5960 0002970 301.1891 141.6461 01.00272350  5230,27.8912,0.000297,1.0027235,180.596,301.1891,141.6461
36395,SDO,IGO,11179.45093567,1 36395U 10005A   11179.45093567 -.00000003 +00000-0 +00000-0 0 03011\,2 36395 027.8914 180.5936 0002959 301.5186 214.6601 01.00272362005233,27.8914,0.0002959,1.00272362,180.5936,301.5186,214.6601
36395,SDO,IGO,11180.51598837,1 36395U 10005A   11180.51598837 -.00000008 +00000-0 +00000-0 0 02991\,2 36395 027.8911 180.5743 0002994 302.7552 237.9117 01.00272315005244,27.8911,0.0002994,1.00272315,180.5743,302.7552,237.9117
36395,SDO,IGO,11181.52952050,1 36395U 10005A   11181.52952050 -.00000013 +00000-0 +00000-0 0 03003\,2 36395 027.8909 180.5565 0003060 305.0671 241.4875 01.00272276005254,27.8909,0.000306,1.00272276,180.5565,305.0671,241.4875
36395,SDO,IGO,11182.58636804,1 36395U 10005A   11182.58636804 -.00000020  00000-0  00000+0 0  3014\,2 36395 027.8907 180.5371 0003103 307.6319 260.4481 01.00272234  5261,27.8907,0.0003103,1.00272234,180.5371,307.6319,260.4481
36395,SDO,IGO,11183.38996624,1 36395U 10005A   11183.38996624 -.00000024 +00000-0 +00000-0 0 03040\,2 36395 027.8906 180.5228 0003103 307.5307 190.6513 01.00272197005276,27.8906,0.0003103,1.00272197,180.5228,307.5307,190.6513
36395,SDO,IGO,11184.16726057,1 36395U 10005A   11184.16726057 -.00000028  00000-0  00000+0 0  3029\,2 36395 027.8904 180.5083 0003064 308.7792 110.0085 01.00272146  5285,27.8904,0.0003064,1.00272146,180.5083,308.7792,110.0085
36395,SDO,IGO,11184.50409030,1 36395U 10005A   11184.50409030 -.00000029 +00000-0 +00000-0 0 03039\,2 36395 027.8904 180.5019 0003089 309.3292 231.0551 01.00272129005286,27.8904,0.0003089,1.00272129,180.5019,309.3292,231.0551
36395,SDO,IGO,11185.57113034,1 36395U 10005A   11185.57113034 -.00000031  00000-0  00000+0 0  3035\,2 36395 027.8898 180.4819 0002902 304.8846 260.7058 01.00271972  5290,27.8898,0.0002902,1.00271972,180.4819,304.8846,260.7058
36395,SDO,IGO,11186.46808007,1 36395U 10005A   11186.46808007 -.00000030 +00000-0 +00000-0 0 03079\,2 36395 027.8899 180.4654 0002940 305.2929 224.0971 01.00271889005303,27.8899,0.000294,1.00271889,180.4654,305.2929,224.0971
36395,SDO,IGO,11187.37631278,1 36395U 10005A   11187.37631278 -.00000029  00000-0  00000+0 0  3048\,2 36395 027.8898 180.4493 0002955 304.7190 192.5455 01.00271855  5313,27.8898,0.0002955,1.00271855,180.4493,304.719,192.5455
36395,SDO,IGO,11190.52417878,1 36395U 10005A   11190.52417878 -.00000023  00000-0  00000+0 0  3052\,2 36395 027.8904 180.3915 0003294 307.0295 246.6000 01.00270637  5345,27.8904,0.0003294,1.00270637,180.3915,307.0295,246.6
36395,SDO,IGO,11191.33953877,1 36395U 10005A   11191.33953877 -.00000024 +00000-0 +00000-0 0 03070\,2 36395 027.8902 180.3764 0003304 307.5820 180.3918 01.00270632005354,27.8902,0.0003304,1.00270632,180.3764,307.582,180.3918
36395,SDO,IGO,11192.23970485,1 36395U 10005A   11192.23970485 -.00000028  00000-0  00000+0 0  3066\,2 36395 027.8899 180.3599 0003317 307.7813 145.1517 01.00270618  5362,27.8899,0.0003317,1.00270618,180.3599,307.7813,145.1517
36395,SDO,IGO,11192.37017823,1 36395U 10005A   11192.37017823 -.00000029 +00000-0 +00000-0 0 03094\,2 36395 027.8898 180.3575 0003314 308.3525 191.6813 01.00270631005369,27.8898,0.0003314,1.00270631,180.3575,308.3525,191.6813
36395,SDO,IGO,11193.25781955,1 36395U 10005A   11193.25781955 -.00000034  00000-0  00000+0 0  3079\,2 36395 027.8895 180.3412 0003316 308.5001 151.9712 01.00270602  5375,27.8895,0.0003316,1.00270602,180.3412,308.5001,151.9712
36395,SDO,IGO,11193.58666884,1 36395U 10005A   11193.58666884 -.00000036 +00000-0 +00000-0 0 03082\,2 36395 027.8894 180.3349 0003296 307.6970 271.4894 01.00270598005378,27.8894,0.0003296,1.00270598,180.3349,307.697,271.4894
36395,SDO,IGO,11194.48145957,1 36395U 10005A   11194.48145957 -.00000042  00000-0  00000+0 0  3081\,2 36395 027.8892 180.3183 0003275 307.9446 234.2603 01.00270573  5389,27.8892,0.0003275,1.00270573,180.3183,307.9446,234.2603
36395,SDO,IGO,11195.47551520,1 36395U 10005A   11195.47551520 -.00000047 +00000-0 +00000-0 0 03107\,2 36395 027.8890 180.3000 0003234 309.1725 231.8851 01.00270556005394,27.889,0.0003234,1.00270556,180.3,309.1725,231.8851
36395,SDO,IGO,11196.54481943,1 36395U 10005A   11196.54481943 -.00000050  00000-0  00000+0 0  3098\,2 36395 027.8887 180.2798 0003227 309.6277 257.4477 01.00270528  5401,27.8887,0.0003227,1.00270528,180.2798,309.6277,257.4477
36395,SDO,IGO,11196.59590655,1 36395U 10005A   11196.59590655 -.00000050 +00000-0 +00000-0 0 03107\,2 36395 027.8887 180.2786 0003231 309.3458 276.1725 01.00270528005405,27.8887,0.0003231,1.00270528,180.2786,309.3458,276.1725
36395,SDO,IGO,11197.45688863,1 36395U 10005A   11197.45688863 -.00000051 +00000-0 +00000-0 0 03136\,2 36395 027.8884 180.2633 0003164 308.4133 227.9199 01.00270545005417,27.8884,0.0003164,1.00270545,180.2633,308.4133,227.9199
36395,SDO,IGO,11198.54791626,1 36395U 10005A   11198.54791626 -.00000049  00000-0  00000+0 0  3102\,2 36395 027.8881 180.2428 0003091 309.0319 261.1631 01.00270568  5425,27.8881,0.0003091,1.00270568,180.2428,309.0319,261.1631
36395,SDO,IGO,11199.58455934,1 36395U 10005A   11199.58455934 -.00000044  00000-0  00000+0 0  3112\,2 36395 027.8879 180.2236 0003113 309.0223 275.4000 01.00270543  5430,27.8879,0.0003113,1.00270543,180.2236,309.0223,275.4
36395,SDO,IGO,11199.58750603,1 36395U 10005A   11199.58750603 -.00000044 +00000-0 +00000-0 0 03125\,2 36395 027.8878 180.2237 0003114 305.5840 279.9041 01.00270562005432,27.8878,0.0003114,1.00270562,180.2237,305.584,279.9041
36395,SDO,IGO,11200.44811059,1 36395U 10005A   11200.44811059 -.00000039 +00000-0 +00000-0 0 03153\,2 36395 027.8876 180.2080 0003084 305.8885 230.2770 01.00270546005446,27.8876,0.0003084,1.00270546,180.208,305.8885,230.277
36395,SDO,IGO,11201.22577676,1 36395U 10005A   11201.22577676 -.00000035  00000-0  00000+0 0  3126\,2 36395 027.8874 180.1937 0003120 306.0810 150.8216 01.00270535  5457,27.8874,0.000312,1.00270535,180.1937,306.081,150.8216
36395,SDO,IGO,11201.32457661,1 36395U 10005A   11201.32457661 -.00000034 +00000-0 +00000-0 0 03140\,2 36395 027.8875 180.1919 0003124 307.1150 185.4546 01.00270551005459,27.8875,0.0003124,1.00270551,180.1919,307.115,185.4546
36395,SDO,IGO,11202.95171352,1 36395U 10005A   11202.95171352  .00000000  00000-0  10000-3 0  3146\,2 36395 027.8818 180.1526 0003790 027.7171 332.2299 01.00268931  5464,27.8818,0.000379,1.00268931,180.1526,27.7171,332.2299
36395,SDO,IGO,11203.14882417,1 36395U 10005A   11203.14882417 -.00000025  00000-0  00000+0 0  3131\,2 36395 027.8870 180.1583 0003173 305.4642 125.6594 01.00270536  5476,27.887,0.0003173,1.00270536,180.1583,305.4642,125.6594
36395,SDO,IGO,11205.38003662,1 36395U 10005A   11205.38003662 -.00000021  00000-0  00000+0 0  3154\,2 36395 027.8862 180.1180 0002872 304.9342 211.6683 01.00271127  5490,27.8862,0.0002872,1.00271127,180.118,304.9342,211.6683
36395,SDO,IGO,11206.52985602,1 36395U 10005A   11206.52985602 -.00000023  00000-0  00000+0 0  3167\,2 36395 027.8860 180.0974 0002876 305.4392 266.2477 01.00271071  5500,27.886,0.0002876,1.00271071,180.0974,305.4392,266.2477
36395,SDO,IGO,11207.56775956,1 36395U 10005A   11207.56775956 -.00000028  00000-0  00000+0 0  3177\,2 36395 027.8858 180.0784 0002896 305.7555 280.6144 01.00271017  5514,27.8858,0.0002896,1.00271017,180.0784,305.7555,280.6144
